[{"OBJECT_NAME":"OBJECT H","OBJECT_ID":"2024-205H","EPOCH":"2026-03-09T23:10:36.271776","MEAN_MOTION":15.29110994,"ECCENTRICITY":0.00105089,"INCLINATION":97.4168,"RA_OF_ASC_NODE":147.1265,"ARG_OF_PERICENTER":38.7838,"MEAN_ANOMALY":321.4154,"EPHEMERIS_TYPE":0,"CLASSIFICATION_TYPE":"U","NORAD_CAT_ID":61901,"ELEMENT_SET_NO":999,"REV_AT_EPOCH":7354,"BSTAR":0.00059497566,"MEAN_MOTION_DOT":0.00016783,"MEAN_MOTION_DDOT":0},{"OBJECT_NAME":"STARLINK-35520","OBJECT_ID":"2025-237V","EPOCH":"2026-03-09T05:46:47.394912","MEAN_MOTION":15.30186255,"ECCENTRICITY":0.00016271,"INCLINATION":53.1616,"RA_OF_ASC_NODE":41.5824,"ARG_OF_PERICENTER":67.2085,"MEAN_ANOMALY":292.9088,"EPHEMERIS_TYPE":0,"CLASSIFICATION_TYPE":"U","NORAD_CAT_ID":66133,"ELEMENT_SET_NO":999,"REV_AT_EPOCH":2254,"BSTAR":0.00049775902,"MEAN_MOTION_DOT":0.00014405,"MEAN_MOTION_DDOT":0}]
